{
  "type": "FeatureCollection",
  "features": [
    {
      "type": "Feature",
      "properties": {
        "norad_id": 30533,
        "name": "FENGYUN 1C DEB",
        "group": "fengyun-1c-debris",
        "lat": -4.032464878256755,
        "lon": 116.31209158489212,
        "alt_km": 768.6224643703472,
        "timestamp": "2025-12-12T20:43:07.312102+00:00",
        "meta_object_name": "FENGYUN 1C DEB",
        "meta_object_id": "1999-025AJX",
        "meta_epoch": "2025-12-12T07:46:18.034176",
        "meta_mean_motion": 14.53786211,
        "meta_eccentricity": 0.0082439,
        "meta_inclination": 98.8335,
        "meta_ra_of_asc_node": 115.1152,
        "meta_arg_of_pericenter": 150.5465,
        "meta_mean_anomaly": 264.2061,
        "meta_ephemeris_type": 0,
        "meta_classification_type": "U",
        "meta_norad_cat_id": 30533,
        "meta_element_set_no": 999,
        "meta_rev_at_epoch": 97815,
        "meta_bstar": 0.0053100127,
        "meta_mean_motion_dot": 0.0002333,
        "meta_mean_motion_ddot": 0,
        "tle_line1": "1 30533U 99025AJX 25346.32381984  .00023330  00000+0  53100-2 0  9998",
        "tle_line2": "2 30533  98.8335 115.1152 0082439 150.5465 264.2061 14.53786211978159"
      },
      "geometry": {
        "type": "Point",
        "coordinates": [
          116.31209158489212,
          -4.032464878256755
        ]
      }
    },
    {
      "type": "Feature",
      "properties": {
        "norad_id": 30539,
        "name": "FENGYUN 1C DEB",
        "group": "fengyun-1c-debris",
        "lat": 78.7301526105811,
        "lon": -84.35521935409724,
        "alt_km": 780.5760897353275,
        "timestamp": "2025-12-12T20:43:07.312112+00:00",
        "meta_object_name": "FENGYUN 1C DEB",
        "meta_object_id": "1999-025AKD",
        "meta_epoch": "2025-12-11T21:14:02.598720",
        "meta_mean_motion": 14.55392865,
        "meta_eccentricity": 0.011548,
        "meta_inclination": 98.8802,
        "meta_ra_of_asc_node": 326.2865,
        "meta_arg_of_pericenter": 278.4262,
        "meta_mean_anomaly": 80.3857,
        "meta_ephemeris_type": 0,
        "meta_classification_type": "U",
        "meta_norad_cat_id": 30539,
        "meta_element_set_no": 999,
        "meta_rev_at_epoch": 99353,
        "meta_bstar": 0.0011191,
        "meta_mean_motion_dot": 5.261e-05,
        "meta_mean_motion_ddot": 0,
        "tle_line1": "1 30539U 99025AKD 25345.88475230  .00005261  00000+0  11191-2 0  9999",
        "tle_line2": "2 30539  98.8802 326.2865 0115480 278.4262  80.3857 14.55392865993537"
      },
      "geometry": {
        "type": "Point",
        "coordinates": [
          -84.35521935409724,
          78.7301526105811
        ]
      }
    },
    {
      "type": "Feature",
      "properties": {
        "norad_id": 30540,
        "name": "FENGYUN 1C DEB",
        "group": "fengyun-1c-debris",
        "lat": -76.19166133372912,
        "lon": 134.69923363268714,
        "alt_km": 820.2428552681022,
        "timestamp": "2025-12-12T20:43:07.312122+00:00",
        "meta_object_name": "FENGYUN 1C DEB",
        "meta_object_id": "1999-025AKE",
        "meta_epoch": "2025-12-12T06:08:36.004128",
        "meta_mean_motion": 14.32271338,
        "meta_eccentricity": 0.00516037,
        "meta_inclination": 98.878,
        "meta_ra_of_asc_node": 94.5871,
        "meta_arg_of_pericenter": 63.8536,
        "meta_mean_anomaly": 327.5374,
        "meta_ephemeris_type": 0,
        "meta_classification_type": "U",
        "meta_norad_cat_id": 30540,
        "meta_element_set_no": 999,
        "meta_rev_at_epoch": 97279,
        "meta_bstar": 0.0031314708,
        "meta_mean_motion_dot": 8.537e-05,
        "meta_mean_motion_ddot": 0,
        "tle_line1": "1 30540U 99025AKE 25346.25597227  .00008537  00000+0  31315-2 0  9993",
        "tle_line2": "2 30540  98.8780  94.5871 0051603  63.8536 327.5374 14.32271338972793"
      },
      "geometry": {
        "type": "Point",
        "coordinates": [
          134.69923363268714,
          -76.19166133372912
        ]
      }
    },
    {
      "type": "Feature",
      "properties": {
        "norad_id": 30541,
        "name": "FENGYUN 1C DEB",
        "group": "fengyun-1c-debris",
        "lat": -49.70125889100725,
        "lon": 43.79884768209691,
        "alt_km": 831.3847161419917,
        "timestamp": "2025-12-12T20:43:07.312133+00:00",
        "meta_object_name": "FENGYUN 1C DEB",
        "meta_object_id": "1999-025AKF",
        "meta_epoch": "2025-12-12T02:23:37.184352",
        "meta_mean_motion": 14.23046996,
        "meta_eccentricity": 0.00183582,
        "meta_inclination": 98.6945,
        "meta_ra_of_asc_node": 32.6494,
        "meta_arg_of_pericenter": 87.7988,
        "meta_mean_anomaly": 272.5292,
        "meta_ephemeris_type": 0,
        "meta_classification_type": "U",
        "meta_norad_cat_id": 30541,
        "meta_element_set_no": 999,
        "meta_rev_at_epoch": 97318,
        "meta_bstar": 0.0017417113,
        "meta_mean_motion_dot": 3.891e-05,
        "meta_mean_motion_ddot": 0,
        "tle_line1": "1 30541U 99025AKF 25346.09973593  .00003891  00000+0  17417-2 0  9995",
        "tle_line2": "2 30541  98.6945  32.6494 0018358  87.7988 272.5292 14.23046996973187"
      },
      "geometry": {
        "type": "Point",
        "coordinates": [
          43.79884768209691,
          -49.70125889100725
        ]
      }
    },
    {
      "type": "Feature",
      "properties": {
        "norad_id": 30542,
        "name": "FENGYUN 1C DEB",
        "group": "fengyun-1c-debris",
        "lat": 10.12220883912293,
        "lon": -162.81044286035112,
        "alt_km": 890.4409951722764,
        "timestamp": "2025-12-12T20:43:07.312144+00:00",
        "meta_object_name": "FENGYUN 1C DEB",
        "meta_object_id": "1999-025AKG",
        "meta_epoch": "2025-12-12T01:16:28.418880",
        "meta_mean_motion": 14.06972939,
        "meta_eccentricity": 0.00275266,
        "meta_inclination": 98.7872,
        "meta_ra_of_asc_node": 14.82,
        "meta_arg_of_pericenter": 336.2418,
        "meta_mean_anomaly": 52.159,
        "meta_ephemeris_type": 0,
        "meta_classification_type": "U",
        "meta_norad_cat_id": 30542,
        "meta_element_set_no": 999,
        "meta_rev_at_epoch": 96909,
        "meta_bstar": 0.00014728577,
        "meta_mean_motion_dot": 2.04e-06,
        "meta_mean_motion_ddot": 0,
        "tle_line1": "1 30542U 99025AKG 25346.05310670  .00000204  00000+0  14729-3 0  9992",
        "tle_line2": "2 30542  98.7872  14.8200 0027526 336.2418  52.1590 14.06972939969096"
      },
      "geometry": {
        "type": "Point",
        "coordinates": [
          -162.81044286035112,
          10.12220883912293
        ]
      }
    },
    {
      "type": "Feature",
      "properties": {
        "norad_id": 30543,
        "name": "FENGYUN 1C DEB",
        "group": "fengyun-1c-debris",
        "lat": -62.29886760414531,
        "lon": 159.19901522786085,
        "alt_km": 933.284133225291,
        "timestamp": "2025-12-12T20:43:07.312154+00:00",
        "meta_object_name": "FENGYUN 1C DEB",
        "meta_object_id": "1999-025AKH",
        "meta_epoch": "2025-12-11T23:18:58.394016",
        "meta_mean_motion": 14.03739658,
        "meta_eccentricity": 0.0072441,
        "meta_inclination": 98.8332,
        "meta_ra_of_asc_node": 355.5602,
        "meta_arg_of_pericenter": 35.6937,
        "meta_mean_anomaly": 24.2755,
        "meta_ephemeris_type": 0,
        "meta_classification_type": "U",
        "meta_norad_cat_id": 30543,
        "meta_element_set_no": 999,
        "meta_rev_at_epoch": 96494,
        "meta_bstar": 0.00053355,
        "meta_mean_motion_dot": 8.17e-06,
        "meta_mean_motion_ddot": 0,
        "tle_line1": "1 30543U 99025AKH 25345.97150919  .00000817  00000+0  53355-3 0  9999",
        "tle_line2": "2 30543  98.8332 355.5602 0072441  35.6937  24.2755 14.03739658964940"
      },
      "geometry": {
        "type": "Point",
        "coordinates": [
          159.19901522786085,
          -62.29886760414531
        ]
      }
    },
    {
      "type": "Feature",
      "properties": {
        "norad_id": 30545,
        "name": "FENGYUN 1C DEB",
        "group": "fengyun-1c-debris",
        "lat": -13.434064872814723,
        "lon": 16.870786833779363,
        "alt_km": 1543.0385598819175,
        "timestamp": "2025-12-12T20:43:07.312188+00:00",
        "meta_object_name": "FENGYUN 1C DEB",
        "meta_object_id": "1999-025AKK",
        "meta_epoch": "2025-12-10T13:12:25.242624",
        "meta_mean_motion": 13.20779599,
        "meta_eccentricity": 0.0472742,
        "meta_inclination": 98.999,
        "meta_ra_of_asc_node": 197.0453,
        "meta_arg_of_pericenter": 16.2017,
        "meta_mean_anomaly": 345.365,
        "meta_ephemeris_type": 0,
        "meta_classification_type": "U",
        "meta_norad_cat_id": 30545,
        "meta_element_set_no": 999,
        "meta_rev_at_epoch": 90901,
        "meta_bstar": 0.00075506,
        "meta_mean_motion_dot": 5.17e-06,
        "meta_mean_motion_ddot": 0,
        "tle_line1": "1 30545U 99025AKK 25344.55029216  .00000517  00000+0  75506-3 0  9998",
        "tle_line2": "2 30545  98.9990 197.0453 0472742  16.2017 345.3650 13.20779599909012"
      },
      "geometry": {
        "type": "Point",
        "coordinates": [
          16.870786833779363,
          -13.434064872814723
        ]
      }
    }
  ]
}